{"type": "FeatureCollection", "features": [ {"type": "Feature", "properties": {"norad_id": 44542, "name": "BEIDOU-3 M24 (C46)", "group": "gnss", "lat": -50.02098762499724, "lon": 129.86681473215776, "alt_km": 21536.877295514456, "timestamp": "2025-12-25T03:55:56.600223+00:00", "meta": {"OBJECT_NAME": "BEIDOU-3 M24 (C46)", "OBJECT_ID": "2019-061A", "EPOCH": "2025-12-24T04:40:53.254848", "MEAN_MOTION": 1.86229374, "ECCENTRICITY": 0.0009588, "INCLINATION": 54.4008, "RA_OF_ASC_NODE": 188.6295, "ARG_OF_PERICENTER": 26.2162, "MEAN_ANOMALY": 333.8692, "EPHEMERIS_TYPE": 0, "CLASSIFICATION_TYPE": "U", "NORAD_CAT_ID": 44542, "ELEMENT_SET_NO": 999, "REV_AT_EPOCH": 4253, "BSTAR": 0, "MEAN_MOTION_DOT": 1.02e-06, "MEAN_MOTION_DDOT": 0}, "tle": {"line1": "1 44542U 19061A   25358.19506082  .00000102  00000+0  00000+0 0  9991", "line2": "2 44542  54.4008 188.6295 0009588  26.2162 333.8692  1.86229374 42530"}}, "geometry": {"type": "Point", "coordinates": [129.86681473215776, -50.02098762499724]}}, {"type": "Feature", "properties": {"norad_id": 44543, "name": "BEIDOU-3 M23 (C45)", "group": "gnss", "lat": -17.971485296877432, "lon": 22.011225236986267, "alt_km": 21547.725442120307, "timestamp": "2025-12-25T03:55:56.600236+00:00", "meta": {"OBJECT_NAME": "BEIDOU-3 M23 (C45)", "OBJECT_ID": "2019-061B", "EPOCH": "2025-12-24T01:09:49.421952", "MEAN_MOTION": 1.86227524, "ECCENTRICITY": 0.00060474, "INCLINATION": 54.3997, "RA_OF_ASC_NODE": 188.6027, "ARG_OF_PERICENTER": 26.1168, "MEAN_ANOMALY": 148.3907, "EPHEMERIS_TYPE": 0, "CLASSIFICATION_TYPE": "U", "NORAD_CAT_ID": 44543, "ELEMENT_SET_NO": 999, "REV_AT_EPOCH": 4253, "BSTAR": 0, "MEAN_MOTION_DOT": 1.01e-06, "MEAN_MOTION_DDOT": 0}, "tle": {"line1": "1 44543U 19061B   25358.04848868  .00000101  00000+0  00000+0 0  9996", "line2": "2 44543  54.3997 188.6027 0006047  26.1168 148.3907  1.86227524 42535"}}, "geometry": {"type": "Point", "coordinates": [22.011225236986267, -17.971485296877432]}}, {"type": "Feature", "properties": {"norad_id": 44624, "name": "EUTELSAT 5 WEST B (EGNOS/PRN 121)", "group": "gnss", "lat": 0.02936332705769038, "lon": 147.87887265674888, "alt_km": 35793.72951320127, "timestamp": "2025-12-25T03:55:56.600247+00:00", "meta": {"OBJECT_NAME": "EUTELSAT 5 WEST B (EGNOS/PRN 121)", "OBJECT_ID": "2019-067A", "EPOCH": "2025-12-24T16:29:59.033184", "MEAN_MOTION": 1.00271313, "ECCENTRICITY": 0.0003125, "INCLINATION": 0.0635, "RA_OF_ASC_NODE": 343.2156, "ARG_OF_PERICENTER": 289.3111, "MEAN_ANOMALY": 63.4298, "EPHEMERIS_TYPE": 0, "CLASSIFICATION_TYPE": "U", "NORAD_CAT_ID": 44624, "ELEMENT_SET_NO": 999, "REV_AT_EPOCH": 2268, "BSTAR": 0, "MEAN_MOTION_DOT": -2.1e-07, "MEAN_MOTION_DDOT": 0}, "tle": {"line1": "1 44624U 19067A   25358.68748881 -.00000021  00000+0  00000+0 0  9998", "line2": "2 44624   0.0635 343.2156 0003125 289.3111  63.4298  1.00271313 22684"}}, "geometry": {"type": "Point", "coordinates": [147.87887265674888, 0.02936332705769038]}}, {"type": "Feature", "properties": {"norad_id": 44793, "name": "BEIDOU-3 M22 (C44)", "group": "gnss", "lat": 29.073472588793518, "lon": -30.342294808409008, "alt_km": 21507.80437868824, "timestamp": "2025-12-25T03:55:56.600258+00:00", "meta": {"OBJECT_NAME": "BEIDOU-3 M22 (C44)", "OBJECT_ID": "2019-078A", "EPOCH": "2025-12-22T23:04:03.320256", "MEAN_MOTION": 1.86232206, "ECCENTRICITY": 0.00060944, "INCLINATION": 54.0989, "RA_OF_ASC_NODE": 306.0279, "ARG_OF_PERICENTER": 24.0205, "MEAN_ANOMALY": 336.0117, "EPHEMERIS_TYPE": 0, "CLASSIFICATION_TYPE": "U", "NORAD_CAT_ID": 44793, "ELEMENT_SET_NO": 999, "REV_AT_EPOCH": 4136, "BSTAR": 0, "MEAN_MOTION_DOT": -5.4e-07, "MEAN_MOTION_DDOT": 0}, "tle": {"line1": "1 44793U 19078A   25356.96114954 -.00000054  00000+0  00000+0 0  9990", "line2": "2 44793  54.0989 306.0279 0006094  24.0205 336.0117  1.86232206 41368"}}, "geometry": {"type": "Point", "coordinates": [-30.342294808409008, 29.073472588793518]}}, {"type": "Feature", "properties": {"norad_id": 44794, "name": "BEIDOU-3 M21 (C43)", "group": "gnss", "lat": -41.99789026817312, "lon": -94.80583412197407, "alt_km": 21528.8699311904, "timestamp": "2025-12-25T03:55:56.600269+00:00", "meta": {"OBJECT_NAME": "BEIDOU-3 M21 (C43)", "OBJECT_ID": "2019-078B", "EPOCH": "2025-12-24T04:09:05.808096", "MEAN_MOTION": 1.86227905, "ECCENTRICITY": 0.00042864, "INCLINATION": 54.0711, "RA_OF_ASC_NODE": 305.95, "ARG_OF_PERICENTER": 12.8306, "MEAN_ANOMALY": 347.188, "EPHEMERIS_TYPE": 0, "CLASSIFICATION_TYPE": "U", "NORAD_CAT_ID": 44794, "ELEMENT_SET_NO": 999, "REV_AT_EPOCH": 4139, "BSTAR": 0, "MEAN_MOTION_DOT": -5.2e-07, "MEAN_MOTION_DDOT": 0}, "tle": {"line1": "1 44794U 19078B   25358.17298389 -.00000052  00000+0  00000+0 0  9999", "line2": "2 44794  54.0711 305.9500 0004286  12.8306 347.1880  1.86227905 41398"}}, "geometry": {"type": "Point", "coordinates": [-94.80583412197407, -41.99789026817312]}}, {"type": "Feature", "properties": {"norad_id": 44850, "name": "COSMOS 2544 (759)", "group": "gnss", "lat": 3.108900335856133, "lon": -101.86373921613355, "alt_km": 19119.782034048905, "timestamp": "2025-12-25T03:55:56.600280+00:00", "meta": {"OBJECT_NAME": "COSMOS 2544 (759)", "OBJECT_ID": "2019-088A", "EPOCH": "2025-12-23T01:21:04.162752", "MEAN_MOTION": 2.13102153, "ECCENTRICITY": 0.0014323, "INCLINATION": 65.465, "RA_OF_ASC_NODE": 79.6136, "ARG_OF_PERICENTER": 250.3939, "MEAN_ANOMALY": 109.4967, "EPHEMERIS_TYPE": 0, "CLASSIFICATION_TYPE": "U", "NORAD_CAT_ID": 44850, "ELEMENT_SET_NO": 999, "REV_AT_EPOCH": 4696, "BSTAR": 0, "MEAN_MOTION_DOT": 1e-08, "MEAN_MOTION_DDOT": 0}, "tle": {"line1": "1 44850U 19088A   25357.05629818  .00000001  00000+0  00000+0 0  9997", "line2": "2 44850  65.4650  79.6136 0014323 250.3939 109.4967  2.13102153 46964"}}, "geometry": {"type": "Point", "coordinates": [-101.86373921613355, 3.108900335856133]}}, {"type": "Feature", "properties": {"norad_id": 44864, "name": "BEIDOU-3 M19 (C41)", "group": "gnss", "lat": 32.32137950859711, "lon": -136.2711950931835, "alt_km": 21565.99089196353, "timestamp": "2025-12-25T03:55:56.600292+00:00", "meta": {"OBJECT_NAME": "BEIDOU-3 M19 (C41)", "OBJECT_ID": "2019-090A", "EPOCH": "2025-12-23T08:14:02.545728", "MEAN_MOTION": 1.86231621, "ECCENTRICITY": 0.00183506, "INCLINATION": 56.4016, "RA_OF_ASC_NODE": 68.6102, "ARG_OF_PERICENTER": 285.1686, "MEAN_ANOMALY": 74.3057, "EPHEMERIS_TYPE": 0, "CLASSIFICATION_TYPE": "U", "NORAD_CAT_ID": 44864, "ELEMENT_SET_NO": 999, "REV_AT_EPOCH": 4095, "BSTAR": 0, "MEAN_MOTION_DOT": -2.5e-07, "MEAN_MOTION_DDOT": 0}, "tle": {"line1": "1 44864U 19090A   25357.34308502 -.00000025  00000+0  00000+0 0  9998", "line2": "2 44864  56.4016  68.6102 0018350 285.1686  74.3057  1.86231621 40950"}}, "geometry": {"type": "Point", "coordinates": [-136.2711950931835, 32.32137950859711]}}, {"type": "Feature", "properties": {"norad_id": 44865, "name": "BEIDOU-3 M20 (C42)", "group": "gnss", "lat": -39.40837375392012, "lon": -78.34051522202928, "alt_km": 21516.263382065325, "timestamp": "2025-12-25T03:55:56.600309+00:00", "meta": {"OBJECT_NAME": "BEIDOU-3 M20 (C42)", "OBJECT_ID": "2019-090B", "EPOCH": "2025-12-24T06:49:50.341152", "MEAN_MOTION": 1.862316, "ECCENTRICITY": 0.00155247, "INCLINATION": 56.404, "RA_OF_ASC_NODE": 68.6133, "ARG_OF_PERICENTER": 297.3471, "MEAN_ANOMALY": 62.9851, "EPHEMERIS_TYPE": 0, "CLASSIFICATION_TYPE": "U", "NORAD_CAT_ID": 44865, "ELEMENT_SET_NO": 999, "REV_AT_EPOCH": 4096, "BSTAR": 0, "MEAN_MOTION_DOT": -2.4e-07, "MEAN_MOTION_DDOT": 0}, "tle": {"line1": "1 44865U 19090B   25358.28461043 -.00000024  00000+0  00000+0 0  9992", "line2": "2 44865  56.4040  68.6133 0015524 297.3471  62.9851  1.86231600 40962"}}, "geometry": {"type": "Point", "coordinates": [-78.34051522202928, -39.40837375392012]}}, {"type": "Feature", "properties": {"norad_id": 45344, "name": "BEIDOU-3 G2 (C60)", "group": "gnss", "lat": -0.39781555894072834, "lon": -127.07204811349399, "alt_km": 35780.02780916936, "timestamp": "2025-12-25T03:55:56.600324+00:00", "meta": {"OBJECT_NAME": "BEIDOU-3 G2 (C60)", "OBJECT_ID": "2020-017A", "EPOCH": "2025-12-24T20:19:44.530752", "MEAN_MOTION": 1.00272356, "ECCENTRICITY": 0.0002113, "INCLINATION": 2.5183, "RA_OF_ASC_NODE": 44.1145, "ARG_OF_PERICENTER": 237.107, "MEAN_ANOMALY": 197.3749, "EPHEMERIS_TYPE": 0, "CLASSIFICATION_TYPE": "U", "NORAD_CAT_ID": 45344, "ELEMENT_SET_NO": 999, "REV_AT_EPOCH": 2151, "BSTAR": 0, "MEAN_MOTION_DOT": -1.2e-06, "MEAN_MOTION_DDOT": 0}, "tle": {"line1": "1 45344U 20017A   25358.84704318 -.00000120  00000+0  00000+0 0  9990", "line2": "2 45344   2.5183  44.1145 0002113 237.1070 197.3749  1.00272356 21512"}}, "geometry": {"type": "Point", "coordinates": [-127.07204811349399, -0.39781555894072834]}}, {"type": "Feature", "properties": {"norad_id": 45358, "name": "COSMOS 2545 (760)", "group": "gnss", "lat": 23.88949532426152, "lon": -29.265113837371423, "alt_km": 19147.915533750875, "timestamp": "2025-12-25T03:55:56.600335+00:00", "meta": {"OBJECT_NAME": "COSMOS 2545 (760)", "OBJECT_ID": "2020-018A", "EPOCH": "2025-12-24T15:50:05.920800", "MEAN_MOTION": 2.13102682, "ECCENTRICITY": 0.0011312, "INCLINATION": 64.4626, "RA_OF_ASC_NODE": 318.552, "ARG_OF_PERICENTER": 250.6883, "MEAN_ANOMALY": 109.1918, "EPHEMERIS_TYPE": 0, "CLASSIFICATION_TYPE": "U", "NORAD_CAT_ID": 45358, "ELEMENT_SET_NO": 999, "REV_AT_EPOCH": 4494, "BSTAR": 0, "MEAN_MOTION_DOT": -3.4e-07, "MEAN_MOTION_DDOT": 0}, "tle": {"line1": "1 45358U 20018A   25358.65979075 -.00000034  00000+0  00000+0 0  9993", "line2": "2 45358  64.4626 318.5520 0011312 250.6883 109.1918  2.13102682 44944"}}, "geometry": {"type": "Point", "coordinates": [-29.265113837371423, 23.88949532426152]}}]}